[{"OBJECT_NAME":"SJ-11-02","OBJECT_ID":"2011-039A","EPOCH":"2026-03-09T16:40:57.382176","MEAN_MOTION":14.64358784,"ECCENTRICITY":0.00098038,"INCLINATION":98.2752,"RA_OF_ASC_NODE":318.2771,"ARG_OF_PERICENTER":209.2906,"MEAN_ANOMALY":212.5003,"EPHEMERIS_TYPE":0,"CLASSIFICATION_TYPE":"U","NORAD_CAT_ID":37765,"ELEMENT_SET_NO":999,"REV_AT_EPOCH":77939,"BSTAR":0.00016869851,"MEAN_MOTION_DOT":8.42e-6,"MEAN_MOTION_DDOT":0},{"OBJECT_NAME":"NOAA 17 DEB","OBJECT_ID":"2002-032H","EPOCH":"2026-03-09T23:05:40.407936","MEAN_MOTION":14.67594034,"ECCENTRICITY":0.00253295,"INCLINATION":98.7277,"RA_OF_ASC_NODE":70.6153,"ARG_OF_PERICENTER":44.8875,"MEAN_ANOMALY":315.437,"EPHEMERIS_TYPE":0,"CLASSIFICATION_TYPE":"U","NORAD_CAT_ID":48167,"ELEMENT_SET_NO":999,"REV_AT_EPOCH":26202,"BSTAR":0.0030931343,"MEAN_MOTION_DOT":0.00017637,"MEAN_MOTION_DDOT":0}]
